[{"OBJECT_NAME":"YAOGAN-36 03B","OBJECT_ID":"2022-160C","EPOCH":"2026-03-09T22:41:52.530432","MEAN_MOTION":15.19636671,"ECCENTRICITY":0.00094652,"INCLINATION":34.992,"RA_OF_ASC_NODE":267.4774,"ARG_OF_PERICENTER":342.1848,"MEAN_ANOMALY":17.8533,"EPHEMERIS_TYPE":0,"CLASSIFICATION_TYPE":"U","NORAD_CAT_ID":54374,"ELEMENT_SET_NO":999,"REV_AT_EPOCH":18261,"BSTAR":0.00040085509,"MEAN_MOTION_DOT":8.731e-5,"MEAN_MOTION_DDOT":0},{"OBJECT_NAME":"HAWK-13A","OBJECT_ID":"2026-004AF","EPOCH":"2026-03-09T21:39:12.868128","MEAN_MOTION":15.18213262,"ECCENTRICITY":0.00045521,"INCLINATION":97.4446,"RA_OF_ASC_NODE":69.2716,"ARG_OF_PERICENTER":336.6017,"MEAN_ANOMALY":23.5009,"EPHEMERIS_TYPE":0,"CLASSIFICATION_TYPE":"U","NORAD_CAT_ID":67392,"ELEMENT_SET_NO":999,"REV_AT_EPOCH":869,"BSTAR":0.00033139107,"MEAN_MOTION_DOT":6.715e-5,"MEAN_MOTION_DDOT":0}]
